#dP2024  5  1  0  0  0.00000000      96 __u+U IGS20 FIT  IAC
## 2312 259200.00000000   900.00000000 60431 0.0000000000000
+  130   C01C02C03C04C05C06C07C08C09C10C11C12C13C14C16C19C20
+        C21C22C23C24C25C26C27C28C29C30C32C33C34C35C36C37C38
+        C39C40C41C42C43C44C45C46C60E02E03E04E05E07E08E09E10
+        E11E12E13E14E15E18E19E21E24E25E26E27E30E31E33E34E36
+        G01G02G03G04G05G06G07G08G09G10G11G12G13G14G15G16G17
+        G18G19G20G21G22G23G24G25G26G27G28G29G30G31G32J02J03
+        J04J07R01R02R03R04R05R06R07R08R09R10R11R12R13R14R15
+        R16R17R18R19R20R21R22R23R24R25R26  0  0  0  0  0  0
++        17 17 17 17 17  9  9 10  9  9  9  9  9  9  9  7  7
++         7  8  7  7  7  7  7  7  7  7  7  7  7  8  7  7  8
++         9  8  7  7  7  8  8  7  0  4  4  5  4  4  4  5  4
++         5  4  4  4  4  5  4  4  4  4  4  4  4  5  4  5  5
++         7  4  4  4  4  4  4  4  4  4  4  4  4  4  4  4  4
++         4  4  4  4  4  4  4  4  4  4  4  4  4  4  4  0 11
++        11 17  7  6  6  6  6 16  6  6  6 15  6  6  7  6  6
++         6  6  6  7  7  6  6 15  6  8  9  0  0  0  0  0  0
%c M  cc GPS ccc cccc cccc cccc cccc ccccc ccccc ccccc ccccc
%c cc cc ccc ccc cccc cccc cccc cccc ccccc ccccc ccccc ccccc
%f  0.0000000  0.000000000  0.00000000000  0.000000000000000
%f  0.0000000  0.000000000  0.00000000000  0.000000000000000
%i    0    0    0    0      0      0      0      0         0
%i    0    0    0    0      0      0      0      0         0
/* INFORMATION & ANALYSIS CENTER (IAC)            RAPID DATA
/* S/V CLOCKS ARE ALIGNED TO GNSS TIME                      
/* G:C1WC2W R:C1PC2P E:C1XC5X C:C2IC6I J:C1CC2S             
/* PCV:IGS20_2290 OL/AL:FES2004  NONE     YN ORB:CoN CLK:CoN
*  2024 05 01 22 15  0.00000000
PC01 -34334.074940  24442.922329  -1332.193438    894.552261
PC02   4438.622677  41946.250163   -528.196105    651.701595
PC03 -14704.773651  39501.682511  -1078.932438    225.076309
PC04 -39633.111329  14336.902240  -1214.278911   -173.989038
PC05  21960.886032  35993.536739    -56.677274   -816.335005
PC06 -16058.331059  28261.734386  26775.536963    389.202962
PC07  -7888.692335  40029.751772  11179.291316   -768.689504
PC08  -2003.781223  22164.409434 -35790.503277    -75.424189
PC09  -9278.159623  27337.501256  30993.328923   -841.264269
PC10  -1527.190849  42264.382635   4286.345802     64.476802
PC11   -910.651177 -18351.142288  21063.243290    540.850350
PC12  15807.880840 -21850.790420   7204.448119   -240.009022
PC13   5180.533611  26060.063070 -32496.458927    433.801227
PC14  -8152.919253 -26621.857225  -1228.381156    779.426264
PC16 -20912.911649  27723.725140  23972.078709   -494.040572
PC19  13260.982129  22329.880962  10285.026901   -913.222922
PC20   2933.018290  27043.589577  -6310.950933   -419.141532
PC21  10253.792218 -15648.501925  20711.514986   -964.980381
PC22  16598.240506   4551.645086  21974.380348    -19.348606
PC23 -27299.352942  -5077.076904   2794.865226   -777.176015
PC24    694.664207 -16581.758184 -22448.887008    930.870489
PC25 -19321.914227 -14745.859055 -13736.803288    389.059040
PC26  19362.941044  -8775.769430 -18078.679348   -285.250798
PC27 -20512.367024  18849.292257   1523.045211    306.914297
PC28 -22089.031554   6235.848472  15873.618997    235.012392
PC29  10101.597555  12656.195677 -22736.002867    275.728810
PC30  -7730.825682  22831.270501 -14054.629748    -67.589497
PC32 -10142.405309  15708.184715 -20705.163493   -613.738480
PC33 -13352.369077 -22279.767173 -10160.529552   -967.860097
PC34   6334.482180 -22531.730657  15195.919827    424.478495
PC35  21841.498427  -6775.993018 -16036.449250    373.458812
PC36  18844.924968  15234.769407  13854.923192     68.760550
PC37 -19792.713606   8168.332084  17918.287712   -968.089366
PC38 -10050.458267  20285.533266 -35525.313146    152.496292
PC39 -24226.735305  28423.127045  19435.975594     -8.192917
PC40 -12934.198422  37736.171420  14093.444562    -68.130701
PC41 -16697.322800  -5416.349569 -21631.297930   -937.672574
PC42  -1740.868561 -26678.570506   7975.372163   -442.650506
PC43  -9342.148268 -13516.137274  22543.186920     70.092980
PC44  19883.804840 -19529.153071  -1738.573293    460.616145
PC45  27264.414876   5230.551436  -2729.081577    -83.213027
PC46    104.392420  16599.156347  22423.551920   -144.665806
PC60      0.000000      0.000000      0.000000 999999.999999
PE02 -19030.556325   1848.856136  22591.854954    123.997537
PE03 -18441.225919  13370.037680 -18908.117052   -110.966682
PE04  10896.888213 -27425.506879   2270.190895   -386.930873
PE05 -15018.518730  -8255.378872 -24123.717626   4743.781125
PE07   2527.858105  25402.773522  15006.943693   -117.724253
PE08 -11347.997132  27176.930345  -3045.971866   -263.953910
PE09  -2367.731650 -25410.813602 -14971.978343   -427.531044
PE10   4147.937721 -16630.889367  24122.468207   -621.506513
PE11  -8075.254344 -14524.081479  24478.056433   2944.937446
PE12  14487.276677 -16140.285805  20147.229330  -1019.437839
PE13   7416.717279  14642.480182 -24635.139815    -21.330733
PE14   1291.497778  29567.049216 -13352.871761     23.231280
PE15 -15009.053308  15995.265683 -19868.565881   -100.386481
PE18  -4038.903533 -19480.052399  12643.819529     62.735894
PE19  18555.914636 -11178.431726  20184.552533   -140.564998
PE21  22978.747599  15679.822846 -10120.075325   -592.238727
PE24 -13281.331147 -24872.198367  -9057.152791   -738.819867
PE25 -22918.058443 -15997.996720   9750.684434      3.999968
PE26  25478.144809   4482.167596 -14392.085323    442.110006
PE27  13605.542420  24775.351438   8775.792109   -338.631100
PE30  -3889.921492  19080.351957  22276.652149   -256.588556
PE31   3667.348387 -19157.157712 -22262.369756    -22.342979
PE33  28439.454466  -7639.676151   3011.466899     11.147271
PE34 -28278.313006   8006.418547  -3537.364064   -108.849249
PE36 -25098.264710  -4770.559055  14934.635116   -221.201765
PG01 -18603.095471   -825.793264  18689.216442    278.991559
PG02   -309.929466  15398.433939 -21123.890681   -443.666238
PG03  10415.204581  21945.649549 -11039.949903    341.173814
PG04    239.558698  23901.528100  11457.051255    351.598070
PG05   2462.267782 -16836.374763  20192.407159   -171.176046
PG06  26092.972966  -5222.357219   -716.397173    294.549481
PG07  19492.928530   7926.816698  16989.664916   -119.683620
PG08  -5551.037851  25679.984599  -1764.342496    154.847246
PG09  10180.427845  14718.333948  19529.921897    180.772379
PG10 -20372.930116  -6386.557455 -15796.497921    -16.393353
PG11  20685.355678 -11937.594813  11590.958112   -651.447006
PG12  -7428.992271 -22561.627529 -12224.470341   -501.613364
PG13  13719.036875 -22085.214951   4579.283807    647.218448
PG14  21160.839569   9726.031982 -12927.591274    390.298081
PG15   2146.980927 -26310.423750  -2172.846241    154.458669
PG16  -7973.826811  13537.597159  21012.859956   -302.586823
PG17  15287.931349    842.803100 -21303.224727    709.251251
PG18 -19967.409534  -6967.165246  16198.358026   -603.920679
PG19  17255.663281  -8301.478612 -18420.282432    476.103574
PG20  12303.453705  -9804.153012  21446.692699    378.124227
PG21  -5535.131532  16205.983694 -19558.158739    124.092872
PG22  18425.396994   2739.835099 -18398.368079     -7.634162
PG23 -20854.067344 -15610.721554  -5670.390373    214.860831
PG24   1868.203813 -16850.085478 -20781.016594   -465.474392
PG25 -16012.945411 -20981.775117  -4377.947498    494.924450
PG26 -17651.567999   3520.313394  19487.173164    158.960018
PG27 -12709.041501  21171.499810   8899.693600    -21.829651
PG28 -25952.647676   4445.601608  -3482.793477   -226.194669
PG29  -6905.688354 -17473.519475  18673.223249   -599.981468
PG30  25503.816825    173.543558   8038.828147   -396.865647
PG31 -23868.537789   9910.716127   6754.082954   -227.935231
PG32 -15899.722118   2437.846277 -20887.269354   -618.429163
PJ02      0.000000      0.000000      0.000000 999999.999999
PJ03 -35447.456451  20354.921491  -5623.574974      0.081302
PJ04 -19697.302262  28909.900296 -18498.150416     50.374935
PJ07 -25368.516363  33678.014934     16.548972      0.008773
PR01   4037.041964  25074.018635   2492.580752     84.106324
PR02   9520.751092  15519.751674  17885.629971    -22.854780
PR03  10598.398115  -3079.701018  23051.634060     99.341721
PR04   5798.550585 -19345.678858  15622.811039    234.514622
PR05  -1939.361859 -25444.001943   -212.839513    130.849043
PR06 -10498.158059 -14065.812545 -18520.699377   -161.458551
PR07 -10449.793778   3920.359464 -22886.998268     81.466627
PR08  -5557.179256  19591.367035 -15276.436090    -75.272020
PR09 -21963.757491 -11987.116454  -4708.594259    184.183482
PR10 -22891.606385  -4911.126825  10210.034633   -157.284194
PR11 -11219.278506   6373.422748  22010.237840     26.148087
PR12   8499.332262  14187.324469  19439.873461     39.642577
PR13  20684.525895  13061.547599   7209.954039    -46.962472
PR14  22142.267601   3530.234625 -12171.365938     26.450349
PR15   9867.416519  -7275.172272 -22351.056876     80.161055
PR16  -8370.333456 -13973.921570 -19607.174059     25.231280
PR17  21539.592957  -9217.725490 -10041.459975     83.005916
PR18  18762.867422 -16076.343197   6457.544571    139.966368
PR19   8326.083765 -15110.736922  18782.711888   -275.069975
PR20 -11676.627791  -4410.698459  22239.649736   -112.147117
PR21 -21608.385165   9041.900963  10119.608908    -97.356643
PR22 -18498.198434  15873.010945  -7470.837909    114.262440
PR23  -4815.165727  14263.896749 -20601.691363   -119.595788
PR24  12589.609330   3853.414875 -21834.282002    -54.111485
PR25 -22032.762457   8404.154619   9749.833890 999999.999999
PR26  -5941.644616  18771.420686 -16207.591799 999999.999999
EOF
